[{"OBJECT_NAME":"ICEYE-X4","OBJECT_ID":"2019-038D","EPOCH":"2026-03-09T23:53:58.416000","MEAN_MOTION":15.26985132,"ECCENTRICITY":0.00122769,"INCLINATION":97.8888,"RA_OF_ASC_NODE":96.1923,"ARG_OF_PERICENTER":293.9914,"MEAN_ANOMALY":66.0038,"EPHEMERIS_TYPE":0,"CLASSIFICATION_TYPE":"U","NORAD_CAT_ID":44390,"ELEMENT_SET_NO":999,"REV_AT_EPOCH":36665,"BSTAR":0.00049915294,"MEAN_MOTION_DOT":0.00013179,"MEAN_MOTION_DDOT":0},{"OBJECT_NAME":"STARLINK-31749","OBJECT_ID":"2024-082A","EPOCH":"2026-03-09T05:13:33.688128","MEAN_MOTION":15.27576194,"ECCENTRICITY":0.00013155,"INCLINATION":43.0051,"RA_OF_ASC_NODE":142.1439,"ARG_OF_PERICENTER":265.9053,"MEAN_ANOMALY":94.1648,"EPHEMERIS_TYPE":0,"CLASSIFICATION_TYPE":"U","NORAD_CAT_ID":59631,"ELEMENT_SET_NO":999,"REV_AT_EPOCH":10494,"BSTAR":-4.796618e-5,"MEAN_MOTION_DOT":-1.582e-5,"MEAN_MOTION_DDOT":0}]
